{"type": "FeatureCollection", "features": [ {"type": "Feature", "properties": {"norad_id": 31411, "name": "FENGYUN 1C DEB", "group": "fengyun-1c-debris", "lat": 55.154764265613025, "lon": 46.027132917409126, "alt_km": 863.6470321438073, "timestamp": "2025-12-23T11:34:48.445099+00:00", "meta": {"OBJECT_NAME": "FENGYUN 1C DEB", "OBJECT_ID": "1999-025BSX", "EPOCH": "2025-12-21T10:37:47.232192", "MEAN_MOTION": 14.28010304, "ECCENTRICITY": 0.01009094, "INCLINATION": 98.668, "RA_OF_ASC_NODE": 56.6601, "ARG_OF_PERICENTER": 229.1813, "MEAN_ANOMALY": 147.9658, "EPHEMERIS_TYPE": 0, "CLASSIFICATION_TYPE": "U", "NORAD_CAT_ID": 31411, "ELEMENT_SET_NO": 999, "REV_AT_EPOCH": 94604, "BSTAR": 0.00039943349, "MEAN_MOTION_DOT": 1.002e-05, "MEAN_MOTION_DDOT": 0}, "tle": {"line1": "1 31411U 99025BSX 25355.44290778  .00001002  00000+0  39943-3 0  9999", "line2": "2 31411  98.6680  56.6601 0100909 229.1813 147.9658 14.28010304946044"}}, "geometry": {"type": "Point", "coordinates": [46.027132917409126, 55.154764265613025]}}, {"type": "Feature", "properties": {"norad_id": 31412, "name": "FENGYUN 1C DEB", "group": "fengyun-1c-debris", "lat": 56.30249804731115, "lon": -72.19124291119539, "alt_km": 876.3423187689596, "timestamp": "2025-12-23T11:34:48.445108+00:00", "meta": {"OBJECT_NAME": "FENGYUN 1C DEB", "OBJECT_ID": "1999-025BSY", "EPOCH": "2025-12-22T19:58:52.181760", "MEAN_MOTION": 14.0989735, "ECCENTRICITY": 0.00828736, "INCLINATION": 98.551, "RA_OF_ASC_NODE": 300.2304, "ARG_OF_PERICENTER": 307.1793, "MEAN_ANOMALY": 52.1832, "EPHEMERIS_TYPE": 0, "CLASSIFICATION_TYPE": "U", "NORAD_CAT_ID": 31412, "ELEMENT_SET_NO": 999, "REV_AT_EPOCH": 61134, "BSTAR": 0.0017320199, "MEAN_MOTION_DOT": 3.107e-05, "MEAN_MOTION_DDOT": 0}, "tle": {"line1": "1 31412U 99025BSY 25356.83254840  .00003107  00000+0  17320-2 0  9996", "line2": "2 31412  98.5510 300.2304 0082873 307.1793  52.1832 14.09897350611343"}}, "geometry": {"type": "Point", "coordinates": [-72.19124291119539, 56.30249804731115]}}, {"type": "Feature", "properties": {"norad_id": 31415, "name": "FENGYUN 1C DEB", "group": "fengyun-1c-debris", "lat": -6.899111262198175, "lon": -48.14070130547301, "alt_km": 764.1493471806289, "timestamp": "2025-12-23T11:34:48.445117+00:00", "meta": {"OBJECT_NAME": "FENGYUN 1C DEB", "OBJECT_ID": "1999-025BTB", "EPOCH": "2025-12-14T14:26:42.789696", "MEAN_MOTION": 14.30617484, "ECCENTRICITY": 0.00641277, "INCLINATION": 99.6387, "RA_OF_ASC_NODE": 300.8477, "ARG_OF_PERICENTER": 69.4394, "MEAN_ANOMALY": 291.365, "EPHEMERIS_TYPE": 0, "CLASSIFICATION_TYPE": "U", "NORAD_CAT_ID": 31415, "ELEMENT_SET_NO": 999, "REV_AT_EPOCH": 62857, "BSTAR": 0.0013058291, "MEAN_MOTION_DOT": 3.436e-05, "MEAN_MOTION_DDOT": 0}, "tle": {"line1": "1 31415U 99025BTB 25348.60188414  .00003436  00000+0  13058-2 0  9997", "line2": "2 31415  99.6387 300.8477 0064127  69.4394 291.3650 14.30617484628574"}}, "geometry": {"type": "Point", "coordinates": [-48.14070130547301, -6.899111262198175]}}, {"type": "Feature", "properties": {"norad_id": 31416, "name": "FENGYUN 1C DEB", "group": "fengyun-1c-debris", "lat": 60.1897467449149, "lon": 32.18105118450039, "alt_km": 837.9217388352436, "timestamp": "2025-12-23T11:34:48.445125+00:00", "meta": {"OBJECT_NAME": "FENGYUN 1C DEB", "OBJECT_ID": "1999-025BTC", "EPOCH": "2025-12-21T20:57:05.120352", "MEAN_MOTION": 14.40690052, "ECCENTRICITY": 0.01330438, "INCLINATION": 99.0492, "RA_OF_ASC_NODE": 46.6292, "ARG_OF_PERICENTER": 223.8852, "MEAN_ANOMALY": 135.1706, "EPHEMERIS_TYPE": 0, "CLASSIFICATION_TYPE": "U", "NORAD_CAT_ID": 31416, "ELEMENT_SET_NO": 999, "REV_AT_EPOCH": 65651, "BSTAR": 0.00026511503, "MEAN_MOTION_DOT": 8.85e-06, "MEAN_MOTION_DDOT": 0}, "tle": {"line1": "1 31416U 99025BTC 25355.87297593  .00000885  00000+0  26512-3 0  9999", "line2": "2 31416  99.0492  46.6292 0133043 223.8852 135.1706 14.40690052656510"}}, "geometry": {"type": "Point", "coordinates": [32.18105118450039, 60.1897467449149]}}, {"type": "Feature", "properties": {"norad_id": 31420, "name": "FENGYUN 1C DEB", "group": "fengyun-1c-debris", "lat": -82.42404738923321, "lon": -19.14324603181516, "alt_km": 675.1584688986377, "timestamp": "2025-12-23T11:34:48.445134+00:00", "meta": {"OBJECT_NAME": "FENGYUN 1C DEB", "OBJECT_ID": "1999-025BTG", "EPOCH": "2025-12-22T11:49:55.637184", "MEAN_MOTION": 14.40849998, "ECCENTRICITY": 0.01350477, "INCLINATION": 97.5584, "RA_OF_ASC_NODE": 253.3186, "ARG_OF_PERICENTER": 298.0006, "MEAN_ANOMALY": 243.5158, "EPHEMERIS_TYPE": 0, "CLASSIFICATION_TYPE": "U", "NORAD_CAT_ID": 31420, "ELEMENT_SET_NO": 999, "REV_AT_EPOCH": 65134, "BSTAR": 0.00061134535, "MEAN_MOTION_DOT": 2.142e-05, "MEAN_MOTION_DDOT": 0}, "tle": {"line1": "1 31420U 99025BTG 25356.49300506  .00002142  00000+0  61135-3 0  9990", "line2": "2 31420  97.5584 253.3186 0135047 298.0006 243.5158 14.40849998651346"}}, "geometry": {"type": "Point", "coordinates": [-19.14324603181516, -82.42404738923321]}}, {"type": "Feature", "properties": {"norad_id": 31422, "name": "FENGYUN 1C DEB", "group": "fengyun-1c-debris", "lat": 54.09211463474662, "lon": -18.14574137803748, "alt_km": 875.4852568435954, "timestamp": "2025-12-23T11:34:48.445144+00:00", "meta": {"OBJECT_NAME": "FENGYUN 1C DEB", "OBJECT_ID": "1999-025BTJ", "EPOCH": "2025-12-22T18:52:54.177888", "MEAN_MOTION": 14.09634403, "ECCENTRICITY": 0.00336522, "INCLINATION": 98.759, "RA_OF_ASC_NODE": 353.4709, "ARG_OF_PERICENTER": 271.71, "MEAN_ANOMALY": 214.3385, "EPHEMERIS_TYPE": 0, "CLASSIFICATION_TYPE": "U", "NORAD_CAT_ID": 31422, "ELEMENT_SET_NO": 999, "REV_AT_EPOCH": 95803, "BSTAR": 0.00030381664, "MEAN_MOTION_DOT": 4.92e-06, "MEAN_MOTION_DDOT": 0}, "tle": {"line1": "1 31422U 99025BTJ 25356.78673817  .00000492  00000+0  30382-3 0  9998", "line2": "2 31422  98.7590 353.4709 0033652 271.7100 214.3385 14.09634403958035"}}, "geometry": {"type": "Point", "coordinates": [-18.14574137803748, 54.09211463474662]}}, {"type": "Feature", "properties": {"norad_id": 31423, "name": "FENGYUN 1C DEB", "group": "fengyun-1c-debris", "lat": -33.64458603136196, "lon": -16.199532458399613, "alt_km": 846.5721313167069, "timestamp": "2025-12-23T11:34:48.445153+00:00", "meta": {"OBJECT_NAME": "FENGYUN 1C DEB", "OBJECT_ID": "1999-025BTK", "EPOCH": "2025-12-20T09:29:17.071872", "MEAN_MOTION": 14.22976459, "ECCENTRICITY": 0.00364823, "INCLINATION": 98.5839, "RA_OF_ASC_NODE": 335.0221, "ARG_OF_PERICENTER": 171.6183, "MEAN_ANOMALY": 188.5613, "EPHEMERIS_TYPE": 0, "CLASSIFICATION_TYPE": "U", "NORAD_CAT_ID": 31423, "ELEMENT_SET_NO": 999, "REV_AT_EPOCH": 97077, "BSTAR": 0.00010584253, "MEAN_MOTION_DOT": 1.97e-06, "MEAN_MOTION_DDOT": 0}, "tle": {"line1": "1 31423U 99025BTK 25354.39533648  .00000197  00000+0  10584-3 0  9995", "line2": "2 31423  98.5839 335.0221 0036482 171.6183 188.5613 14.22976459970774"}}, "geometry": {"type": "Point", "coordinates": [-16.199532458399613, -33.64458603136196]}}, {"type": "Feature", "properties": {"norad_id": 31424, "name": "FENGYUN 1C DEB", "group": "fengyun-1c-debris", "lat": -59.25979852058178, "lon": -153.69309563740475, "alt_km": 938.196749306263, "timestamp": "2025-12-23T11:34:48.445162+00:00", "meta": {"OBJECT_NAME": "FENGYUN 1C DEB", "OBJECT_ID": "1999-025BTL", "EPOCH": "2025-12-19T21:11:45.819744", "MEAN_MOTION": 14.08364776, "ECCENTRICITY": 0.0094457, "INCLINATION": 98.4802, "RA_OF_ASC_NODE": 37.4514, "ARG_OF_PERICENTER": 85.2675, "MEAN_ANOMALY": 275.9275, "EPHEMERIS_TYPE": 0, "CLASSIFICATION_TYPE": "U", "NORAD_CAT_ID": 31424, "ELEMENT_SET_NO": 999, "REV_AT_EPOCH": 63271, "BSTAR": 9.2141e-05, "MEAN_MOTION_DOT": 1.25e-06, "MEAN_MOTION_DDOT": 0}, "tle": {"line1": "1 31424U 99025BTL 25353.88316921  .00000125  00000+0  92141-4 0  9993", "line2": "2 31424  98.4802  37.4514 0094457  85.2675 275.9275 14.08364776632715"}}, "geometry": {"type": "Point", "coordinates": [-153.69309563740475, -59.25979852058178]}}, {"type": "Feature", "properties": {"norad_id": 31426, "name": "FENGYUN 1C DEB", "group": "fengyun-1c-debris", "lat": 74.41836357311121, "lon": 121.51069746702503, "alt_km": 870.3839025926172, "timestamp": "2025-12-23T11:34:48.445171+00:00", "meta": {"OBJECT_NAME": "FENGYUN 1C DEB", "OBJECT_ID": "1999-025BTN", "EPOCH": "2025-12-22T16:17:12.615072", "MEAN_MOTION": 13.90148061, "ECCENTRICITY": 0.03243611, "INCLINATION": 98.58, "RA_OF_ASC_NODE": 153.5459, "ARG_OF_PERICENTER": 158.6861, "MEAN_ANOMALY": 221.0513, "EPHEMERIS_TYPE": 0, "CLASSIFICATION_TYPE": "U", "NORAD_CAT_ID": 31426, "ELEMENT_SET_NO": 999, "REV_AT_EPOCH": 93711, "BSTAR": 0.0021501429, "MEAN_MOTION_DOT": 4.028e-05, "MEAN_MOTION_DDOT": 0}, "tle": {"line1": "1 31426U 99025BTN 25356.67861823  .00004028  00000+0  21501-2 0  9997", "line2": "2 31426  98.5800 153.5459 0324361 158.6861 221.0513 13.90148061937112"}}, "geometry": {"type": "Point", "coordinates": [121.51069746702503, 74.41836357311121]}}, {"type": "Feature", "properties": {"norad_id": 31427, "name": "FENGYUN 1C DEB", "group": "fengyun-1c-debris", "lat": 31.26772781026108, "lon": -67.678312971057, "alt_km": 716.0923048830546, "timestamp": "2025-12-23T11:34:48.445181+00:00", "meta": {"OBJECT_NAME": "FENGYUN 1C DEB", "OBJECT_ID": "1999-025BTP", "EPOCH": "2025-12-18T05:47:54.672864", "MEAN_MOTION": 14.58782347, "ECCENTRICITY": 0.00311027, "INCLINATION": 98.6704, "RA_OF_ASC_NODE": 101.5375, "ARG_OF_PERICENTER": 1.2024, "MEAN_ANOMALY": 358.9243, "EPHEMERIS_TYPE": 0, "CLASSIFICATION_TYPE": "U", "NORAD_CAT_ID": 31427, "ELEMENT_SET_NO": 999, "REV_AT_EPOCH": 96961, "BSTAR": 0.0019331308, "MEAN_MOTION_DOT": 9.052e-05, "MEAN_MOTION_DDOT": 0}, "tle": {"line1": "1 31427U 99025BTP 25352.24160501  .00009052  00000+0  19331-2 0  9992", "line2": "2 31427  98.6704 101.5375 0031102   1.2024 358.9243 14.58782347969615"}}, "geometry": {"type": "Point", "coordinates": [-67.678312971057, 31.26772781026108]}}]}